[{"OBJECT_NAME":"STARLINK-35274","OBJECT_ID":"2025-235R","EPOCH":"2026-03-09T17:36:10.368576","MEAN_MOTION":15.30212157,"ECCENTRICITY":0.00011389,"INCLINATION":53.1599,"RA_OF_ASC_NODE":245.3852,"ARG_OF_PERICENTER":125.2737,"MEAN_ANOMALY":234.8371,"EPHEMERIS_TYPE":0,"CLASSIFICATION_TYPE":"U","NORAD_CAT_ID":66073,"ELEMENT_SET_NO":999,"REV_AT_EPOCH":2292,"BSTAR":0.00085005779,"MEAN_MOTION_DOT":0.00024911,"MEAN_MOTION_DDOT":0},{"OBJECT_NAME":"CZ-6A DEB","OBJECT_ID":"2022-151NB","EPOCH":"2026-03-09T18:26:17.609568","MEAN_MOTION":15.22372787,"ECCENTRICITY":0.00267955,"INCLINATION":98.6489,"RA_OF_ASC_NODE":154.0342,"ARG_OF_PERICENTER":180.4296,"MEAN_ANOMALY":179.6918,"EPHEMERIS_TYPE":0,"CLASSIFICATION_TYPE":"U","NORAD_CAT_ID":54601,"ELEMENT_SET_NO":999,"REV_AT_EPOCH":17694,"BSTAR":0.011449911,"MEAN_MOTION_DOT":0.00276508,"MEAN_MOTION_DDOT":0}]
